[{"OBJECT_NAME":"STARLINK-5290","OBJECT_ID":"2022-141A","EPOCH":"2026-03-09T06:19:22.680480","MEAN_MOTION":15.08831092,"ECCENTRICITY":0.00013637,"INCLINATION":53.218,"RA_OF_ASC_NODE":15.9856,"ARG_OF_PERICENTER":99.258,"MEAN_ANOMALY":260.8566,"EPHEMERIS_TYPE":0,"CLASSIFICATION_TYPE":"U","NORAD_CAT_ID":54157,"ELEMENT_SET_NO":999,"REV_AT_EPOCH":18565,"BSTAR":0.00011846209,"MEAN_MOTION_DOT":1.597e-5,"MEAN_MOTION_DDOT":0},{"OBJECT_NAME":"LEMUR-2-SIERRINI","OBJECT_ID":"2024-149DR","EPOCH":"2026-03-09T19:24:50.445216","MEAN_MOTION":15.08682764,"ECCENTRICITY":0.00065795,"INCLINATION":97.6873,"RA_OF_ASC_NODE":151.1225,"ARG_OF_PERICENTER":147.8458,"MEAN_ANOMALY":212.3173,"EPHEMERIS_TYPE":0,"CLASSIFICATION_TYPE":"U","NORAD_CAT_ID":60579,"ELEMENT_SET_NO":999,"REV_AT_EPOCH":8546,"BSTAR":0.00092040134,"MEAN_MOTION_DOT":0.00014386,"MEAN_MOTION_DDOT":0}]
